O3B MPOWER F1           
1 54755U 22174A   23208.30361404 -.00000011  00000+0  00000+0 0  9999
2 54755   0.0395  10.4176 0003283 191.8079 125.9257  5.00111988 12530
